COSMOS 1933             
1 18958U 88020A   26031.14623635  .00003941  00000+0  19433-3 0  9990
2 18958  82.5140 288.0517 0004056 356.3422   3.7782 15.17649250 44537
SL-3 R/B                
1 19046U 88032B   26031.13444463  .00005829  00000+0  27613-3 0  9997
2 19046  97.5129  14.5494 0026565   9.4544 350.7184 15.19401115 46402
SL-16 R/B               
1 19120U 88039B   26031.07133262  .00000179  00000+0  10736-3 0  9993
2 19120  71.0151 148.0926 0020514  32.5493 327.6892 14.19610049953041
COSMOS 1953             
1 19210U 88050A   26030.90838200  .00009258  00000+0  34006-3 0  9994
2 19210  82.5074 196.2167 0010375 256.4848 103.5235 15.27729493 32010
SL-8 R/B                
1 19257U 88053B   26030.91506039  .00000287  00000+0  10149-3 0  9996
2 19257  74.0471 182.0868 0019982   8.8827 108.4334 14.38891899971161
COSMOS 1975             
1 19573U 88093A   26030.80114258  .00010873  00000+0  40389-3 0  9998
2 19573  82.5222 155.6860 0010610 307.0800  52.9468 15.27372769 13620
SL-14 R/B               
1 19574U 88093B   26031.14527873  .00000540  00000+0  59289-4 0  9998
2 19574  82.5286  77.2984 0021264 158.4375 255.4800 14.85614161995468
SL-16 R/B               
1 19650U 88102B   26030.97389730 -.00000215  00000+0 -84389-4 0  9992
2 19650  70.9973 230.8517 0012061  64.2580 295.9787 14.16146719921558
INTERCOSMOS 24          
1 20261U 89080A   26030.99496155  .00000542  00000+0  15398-3 0  9994
2 20261  82.6076 128.9344 1188522  20.3268 344.1263 12.59507048662054
SL-14 R/B               
1 20262U 89080C   26030.94802723  .00000352  00000+0  10687-3 0  9997
2 20262  82.5932 197.4173 1229440 271.0724  75.0103 12.50450354655438
DELTA 1 R/B             
1 20323U 89089B   26031.09734965  .00000510  00000+0  13507-3 0  9993
2 20323  97.0731 244.5081 0067749 240.9674 118.4725 14.50628774890287
ARIANE 40 R/B           
1 20443U 90005H   26031.14904273  .00000352  00000+0  12547-3 0  9990
2 20443  98.3163  92.9137 0009290 322.7854  37.2690 14.39843712887403
