CCSDS_OMM_VERS = 2.0
CREATION_DATE  = 
ORIGINATOR     = 

OBJECT_NAME    = COSMOS 1933
OBJECT_ID      = 1988-020A
CENTER_NAME    = EARTH
REF_FRAME      = TEME
TIME_SYSTEM    = UTC
MEAN_ELEMENT_THEORY = SGP/SGP4

EPOCH          = 2026-01-31T03:30:34.820640
MEAN_MOTION    = 15.17649250
ECCENTRICITY   = .0004056
INCLINATION    = 82.5140
RA_OF_ASC_NODE = 288.0517
ARG_OF_PERICENTER = 356.3422
MEAN_ANOMALY   = 3.7782

EPHEMERIS_TYPE = 0
CLASSIFICATION_TYPE = U
NORAD_CAT_ID   = 18958
ELEMENT_SET_NO = 999
REV_AT_EPOCH   = 4453
BSTAR          = .19433E-3
MEAN_MOTION_DOT = .3941E-4
MEAN_MOTION_DDOT = 0

CCSDS_OMM_VERS = 2.0
CREATION_DATE  = 
ORIGINATOR     = 

OBJECT_NAME    = SL-3 R/B
OBJECT_ID      = 1988-032B
CENTER_NAME    = EARTH
REF_FRAME      = TEME
TIME_SYSTEM    = UTC
MEAN_ELEMENT_THEORY = SGP/SGP4

EPOCH          = 2026-01-31T03:13:36.016032
MEAN_MOTION    = 15.19401115
ECCENTRICITY   = .0026565
INCLINATION    = 97.5129
RA_OF_ASC_NODE = 14.5494
ARG_OF_PERICENTER = 9.4544
MEAN_ANOMALY   = 350.7184

EPHEMERIS_TYPE = 0
CLASSIFICATION_TYPE = U
NORAD_CAT_ID   = 19046
ELEMENT_SET_NO = 999
REV_AT_EPOCH   = 4640
BSTAR          = .27613E-3
MEAN_MOTION_DOT = .5829E-4
MEAN_MOTION_DDOT = 0

CCSDS_OMM_VERS = 2.0
CREATION_DATE  = 
ORIGINATOR     = 

OBJECT_NAME    = SL-16 R/B
OBJECT_ID      = 1988-039B
CENTER_NAME    = EARTH
REF_FRAME      = TEME
TIME_SYSTEM    = UTC
MEAN_ELEMENT_THEORY = SGP/SGP4

EPOCH          = 2026-01-31T01:42:43.138368
MEAN_MOTION    = 14.19610049
ECCENTRICITY   = .0020514
INCLINATION    = 71.0151
RA_OF_ASC_NODE = 148.0926
ARG_OF_PERICENTER = 32.5493
MEAN_ANOMALY   = 327.6892

EPHEMERIS_TYPE = 0
CLASSIFICATION_TYPE = U
NORAD_CAT_ID   = 19120
ELEMENT_SET_NO = 999
REV_AT_EPOCH   = 95304
BSTAR          = .10736E-3
MEAN_MOTION_DOT = .179E-5
MEAN_MOTION_DDOT = 0

CCSDS_OMM_VERS = 2.0
CREATION_DATE  = 
ORIGINATOR     = 

OBJECT_NAME    = COSMOS 1953
OBJECT_ID      = 1988-050A
CENTER_NAME    = EARTH
REF_FRAME      = TEME
TIME_SYSTEM    = UTC
MEAN_ELEMENT_THEORY = SGP/SGP4

EPOCH          = 2026-01-30T21:48:04.204800
MEAN_MOTION    = 15.27729493
ECCENTRICITY   = .0010375
INCLINATION    = 82.5074
RA_OF_ASC_NODE = 196.2167
ARG_OF_PERICENTER = 256.4848
MEAN_ANOMALY   = 103.5235

EPHEMERIS_TYPE = 0
CLASSIFICATION_TYPE = U
NORAD_CAT_ID   = 19210
ELEMENT_SET_NO = 999
REV_AT_EPOCH   = 3201
BSTAR          = .34006E-3
MEAN_MOTION_DOT = .9258E-4
MEAN_MOTION_DDOT = 0

CCSDS_OMM_VERS = 2.0
CREATION_DATE  = 
ORIGINATOR     = 

OBJECT_NAME    = SL-8 R/B
OBJECT_ID      = 1988-053B
CENTER_NAME    = EARTH
REF_FRAME      = TEME
TIME_SYSTEM    = UTC
MEAN_ELEMENT_THEORY = SGP/SGP4

EPOCH          = 2026-01-30T21:57:41.217696
MEAN_MOTION    = 14.38891899
ECCENTRICITY   = .0019982
INCLINATION    = 74.0471
RA_OF_ASC_NODE = 182.0868
ARG_OF_PERICENTER = 8.8827
MEAN_ANOMALY   = 108.4334

EPHEMERIS_TYPE = 0
CLASSIFICATION_TYPE = U
NORAD_CAT_ID   = 19257
ELEMENT_SET_NO = 999
REV_AT_EPOCH   = 97116
BSTAR          = .10149E-3
MEAN_MOTION_DOT = .287E-5
MEAN_MOTION_DDOT = 0

CCSDS_OMM_VERS = 2.0
CREATION_DATE  = 
ORIGINATOR     = 

OBJECT_NAME    = COSMOS 1975
OBJECT_ID      = 1988-093A
CENTER_NAME    = EARTH
REF_FRAME      = TEME
TIME_SYSTEM    = UTC
MEAN_ELEMENT_THEORY = SGP/SGP4

EPOCH          = 2026-01-30T19:13:38.718912
MEAN_MOTION    = 15.27372769
ECCENTRICITY   = .00106107
INCLINATION    = 82.5222
RA_OF_ASC_NODE = 155.6860
ARG_OF_PERICENTER = 307.0800
MEAN_ANOMALY   = 52.9468

EPHEMERIS_TYPE = 0
CLASSIFICATION_TYPE = U
NORAD_CAT_ID   = 19573
ELEMENT_SET_NO = 999
REV_AT_EPOCH   = 1362
BSTAR          = .40388881E-3
MEAN_MOTION_DOT = .10873E-3
MEAN_MOTION_DDOT = 0

CCSDS_OMM_VERS = 2.0
CREATION_DATE  = 
ORIGINATOR     = 

OBJECT_NAME    = SL-14 R/B
OBJECT_ID      = 1988-093B
CENTER_NAME    = EARTH
REF_FRAME      = TEME
TIME_SYSTEM    = UTC
MEAN_ELEMENT_THEORY = SGP/SGP4

EPOCH          = 2026-01-31T03:29:12.082272
MEAN_MOTION    = 14.85614161
ECCENTRICITY   = .0021264
INCLINATION    = 82.5286
RA_OF_ASC_NODE = 77.2984
ARG_OF_PERICENTER = 158.4375
MEAN_ANOMALY   = 255.4800

EPHEMERIS_TYPE = 0
CLASSIFICATION_TYPE = U
NORAD_CAT_ID   = 19574
ELEMENT_SET_NO = 999
REV_AT_EPOCH   = 99546
BSTAR          = .59289E-4
MEAN_MOTION_DOT = .54E-5
MEAN_MOTION_DDOT = 0

CCSDS_OMM_VERS = 2.0
CREATION_DATE  = 
ORIGINATOR     = 

OBJECT_NAME    = SL-16 R/B
OBJECT_ID      = 1988-102B
CENTER_NAME    = EARTH
REF_FRAME      = TEME
TIME_SYSTEM    = UTC
MEAN_ELEMENT_THEORY = SGP/SGP4

EPOCH          = 2026-01-30T23:22:24.726720
MEAN_MOTION    = 14.16146719
ECCENTRICITY   = .0012061
INCLINATION    = 70.9973
RA_OF_ASC_NODE = 230.8517
ARG_OF_PERICENTER = 64.2580
MEAN_ANOMALY   = 295.9787

EPHEMERIS_TYPE = 0
CLASSIFICATION_TYPE = U
NORAD_CAT_ID   = 19650
ELEMENT_SET_NO = 999
REV_AT_EPOCH   = 92155
BSTAR          = -.84389E-4
MEAN_MOTION_DOT = -.215E-5
MEAN_MOTION_DDOT = 0

CCSDS_OMM_VERS = 2.0
CREATION_DATE  = 
ORIGINATOR     = 

OBJECT_NAME    = INTERCOSMOS 24
OBJECT_ID      = 1989-080A
CENTER_NAME    = EARTH
REF_FRAME      = TEME
TIME_SYSTEM    = UTC
MEAN_ELEMENT_THEORY = SGP/SGP4

EPOCH          = 2026-01-30T23:52:44.677920
MEAN_MOTION    = 12.59507048
ECCENTRICITY   = .1188522
INCLINATION    = 82.6076
RA_OF_ASC_NODE = 128.9344
ARG_OF_PERICENTER = 20.3268
MEAN_ANOMALY   = 344.1263

EPHEMERIS_TYPE = 0
CLASSIFICATION_TYPE = U
NORAD_CAT_ID   = 20261
ELEMENT_SET_NO = 999
REV_AT_EPOCH   = 66205
BSTAR          = .15398E-3
MEAN_MOTION_DOT = .542E-5
MEAN_MOTION_DDOT = 0

CCSDS_OMM_VERS = 2.0
CREATION_DATE  = 
ORIGINATOR     = 

OBJECT_NAME    = SL-14 R/B
OBJECT_ID      = 1989-080C
CENTER_NAME    = EARTH
REF_FRAME      = TEME
TIME_SYSTEM    = UTC
MEAN_ELEMENT_THEORY = SGP/SGP4

EPOCH          = 2026-01-30T22:45:09.552672
MEAN_MOTION    = 12.50450354
ECCENTRICITY   = .122944
INCLINATION    = 82.5932
RA_OF_ASC_NODE = 197.4173
ARG_OF_PERICENTER = 271.0724
MEAN_ANOMALY   = 75.0103

EPHEMERIS_TYPE = 0
CLASSIFICATION_TYPE = U
NORAD_CAT_ID   = 20262
ELEMENT_SET_NO = 999
REV_AT_EPOCH   = 65543
BSTAR          = .10687E-3
MEAN_MOTION_DOT = .352E-5
MEAN_MOTION_DDOT = 0

CCSDS_OMM_VERS = 2.0
CREATION_DATE  = 
ORIGINATOR     = 

OBJECT_NAME    = DELTA 1 R/B
OBJECT_ID      = 1989-089B
CENTER_NAME    = EARTH
REF_FRAME      = TEME
TIME_SYSTEM    = UTC
MEAN_ELEMENT_THEORY = SGP/SGP4

EPOCH          = 2026-01-31T02:20:11.009760
MEAN_MOTION    = 14.50628774
ECCENTRICITY   = .0067749
INCLINATION    = 97.0731
RA_OF_ASC_NODE = 244.5081
ARG_OF_PERICENTER = 240.9674
MEAN_ANOMALY   = 118.4725

EPHEMERIS_TYPE = 0
CLASSIFICATION_TYPE = U
NORAD_CAT_ID   = 20323
ELEMENT_SET_NO = 999
REV_AT_EPOCH   = 89028
BSTAR          = .13507E-3
MEAN_MOTION_DOT = .51E-5
MEAN_MOTION_DDOT = 0

CCSDS_OMM_VERS = 2.0
CREATION_DATE  = 
ORIGINATOR     = 

OBJECT_NAME    = ARIANE 40 R/B
OBJECT_ID      = 1990-005H
CENTER_NAME    = EARTH
REF_FRAME      = TEME
TIME_SYSTEM    = UTC
MEAN_ELEMENT_THEORY = SGP/SGP4

EPOCH          = 2026-01-31T03:34:37.291872
MEAN_MOTION    = 14.39843712
ECCENTRICITY   = .000929
INCLINATION    = 98.3163
RA_OF_ASC_NODE = 92.9137
ARG_OF_PERICENTER = 322.7854
MEAN_ANOMALY   = 37.2690

EPHEMERIS_TYPE = 0
CLASSIFICATION_TYPE = U
NORAD_CAT_ID   = 20443
ELEMENT_SET_NO = 999
REV_AT_EPOCH   = 88740
BSTAR          = .12547E-3
MEAN_MOTION_DOT = .352E-5
MEAN_MOTION_DDOT = 0

